#aV2012  6 21  0  0  0.00000000     288 DD+AD WGS84 FIT  NGA
## 1693 345600.00000000   300.00000000 56099 0.0000000000000
+   31     1  2  3  4  5  6  7  8  9 10 11 12 13 14 15 16 17
+         18 19 20 21 22 23 25 26 27 28 29 30 31 32  0  0  0
+          0  0  0  0  0  0  0  0  0  0  0  0  0  0  0  0  0
+          0  0  0  0  0  0  0  0  0  0  0  0  0  0  0  0  0
+          0  0  0  0  0  0  0  0  0  0  0  0  0  0  0  0  0
++         2  2  2  2  2  2  2  2  2  2  2  2  2  2  2  2  2
++         2  2  2  2  2  2  2  2  2  2  2  2  2  2  2  0  0
++         0  0  0  0  0  0  0  0  0  0  0  0  0  0  0  0  0
++         0  0  0  0  0  0  0  0  0  0  0  0  0  0  0  0  0
++         0  0  0  0  0  0  0  0  0  0  0  0  0  0  0  0  0
%c cc cc ccc ccc cccc cccc cccc cccc ccccc ccccc ccccc ccccc
%c cc cc ccc ccc cccc cccc cccc cccc ccccc ccccc ccccc ccccc
%f  0.0000000  0.000000000  0.00000000000  0.000000000000000
%f  0.0000000  0.000000000  0.00000000000  0.000000000000000
%i    0    0    0    0      0      0      0      0         0
%i    0    0    0    0      0      0      0      0         0
/*      NGA, ST. LOUIS,MO.                                  
/*   EPHEMERIS COMPUTED FROM  1 DAYS OF DATA
/*   EPOCHA SMOOTHER  
/* CCCCCCCCCCCCCCCCCCCCCCCCCCCCCCCCCCCCCCCCCCCCCCCCCCCCCCCCC
*  2012  6 21  1 15  0.00000000                                                 
P  1  17137.930096   3631.992300  19967.929811    262.257102                    
V  1   9718.972028  23453.296361 -12564.983096      0.016520                    
P  2 -13666.792667 -22855.881861  -3184.734318    394.320947                    
V  2    950.423556  -5084.061433  30576.381648      0.012178                    
P  3  18258.009076  11295.416989 -16283.069393     65.055590                    
V  3 -19673.807870   3024.277708 -20294.923071      0.049436                    
P  4  -4925.884476 -24589.513730   7999.212912    220.423895                    
V  4   7746.161529   8111.754475  29122.202944      0.113827                    
P  5  -9037.273125 -13346.989921 -21109.720788   -327.311988                    
V  5  16022.566283 -21518.155348   6875.898163     -0.036305                    
P  6  14041.643007  13626.446699 -17977.066853     16.131401                    
V  6 -23072.590180   1025.332859 -16822.680438     -0.039621                    
P  7  11354.949982 -10425.387257 -21573.665147     92.651364                    
V  7  11644.643414  24851.405658  -6130.888078      0.036842                    
P  8   2794.044932 -21421.812637 -14969.843618      1.517020                    
V  8   7841.338822  17710.182389 -24329.967103      0.000931                    
P  9 -17164.955091  -8662.737469  17743.786657    166.465380                    
V  9  -8878.204234 -21943.580101 -18765.122586      0.026595                    
P 10   6312.568052 -22885.918020 -11742.672364    -42.132533                    
V 10  11124.204689 -10070.466828  26566.518856     -0.012867                    
P 11  21341.613509   8076.607957  13451.750979   -273.750063                    
V 11   8772.879761  15953.870902 -22523.376561     -0.039789                    
P 12 -18350.283415   3596.081132  18772.019173     75.657114                    
V 12  13233.339539 -19916.558895  16931.497363      0.020739                    
P 13  20609.283461  -6683.753829 -15577.694275    199.682838                    
V 13  18863.473033   4840.489443  22988.863858     -0.024411                    
P 14  -3680.550884  14489.270006  22127.985374    205.564701                    
V 14 -27251.769796  -4463.327238  -1768.670104      0.007797                    
P 15 -26244.064727  -3835.467391  -2855.939294    -91.865630                    
V 15   3803.135952  -2845.881198 -30998.600081     -0.002595                    
P 16   7895.043294  13337.310315 -21521.752118   -238.810167                    
V 16 -17184.001142  21250.604316   7174.179696     -0.011542                    
P 17   5071.037604 -14602.354211  21758.050819    119.517725                    
V 17  26947.654131   3848.056040  -3959.622019     -0.029145                    
P 18 -16963.931944  19908.870670  -2911.027609    201.515869                    
V 18   -902.771709  -5811.015342 -30986.953770      0.018051                    
P 19  25221.272208   7790.685471  -4535.764851   -277.198441                    
V 19  -5975.426477   1380.860963 -30804.200663     -0.036683                    
P 20  19417.201757  -8435.691949  15843.083088     64.059584                    
V 20  -8858.303611  18695.902884  20672.607666      0.002917                    
P 21  -9094.254672  14849.447286 -19400.113605   -231.544532                    
V 21 -12452.805895 -22896.643841 -11971.066530     -0.024296                    
P 22  -7386.311298  23365.464899  10267.341162    144.739231                    
V 22 -10341.704777   8419.303437 -27219.933557      0.001212                    
P 23  26303.882431   -692.189057  -4862.352816    193.297106                    
V 23   5870.962499   3076.375829  30700.604411     -0.037990                    
P 25 -18781.045251  16502.459321   8833.880308     35.739427                    
V 25   4440.400353 -10641.266189  29255.999735      0.006375                    
P 26 -18695.075153 -13126.575700 -14474.388228   -368.764204                    
V 26  17076.292179   1847.032888 -24456.706399      0.105002                    
P 27 -18118.983290 -13265.702629  15178.868793    400.892136                    
V 27  -7179.955235 -16501.409003 -23480.434363      0.041074                    
P 28  10405.423574 -22875.018907   8793.540652    156.864181                    
V 28   8086.597361  -6926.325652 -29659.246172      0.040075                    
P 29 -23028.286991   5296.021799 -12016.258324    325.532705                    
V 29 -14918.831787  -4369.995643  26569.344423      0.038712                    
P 30   1306.941493  21097.223283 -16444.641698   -249.497127                    
V 30 -11477.075560  16730.715963  21017.112251     -0.225694                    
P 31   5746.253551  24857.092385   7101.365764    254.332477                    
V 31  -5593.956195  -7160.922721  30629.224472      0.029180                    
P 32  17165.720641   2038.886504  20241.712701   -456.622723                    
V 32 -15391.442820  20264.564917  11599.910956     -0.040621                    
EOF
